NORAD_CAT_ID,OBJECT_NAME,OBJECT_TYPE,EPOCH,MEAN_MOTION,ECCENTRICITY,INCLINATION,RA_OF_ASC_NODE,ARG_OF_PERICENTER,MEAN_ANOMALY,BSTAR,MEAN_MOTION_DOT,MEAN_MOTION_DDOT,TLE_LINE0,TLE_LINE1,TLE_LINE2,SEMIMAJOR_AXIS,PERIOD,APOGEE,PERIGEE,DECAYED
52565.0,STARLINK-3911,PAYLOAD,2024-06-07 13:36:25,15.08834624,0.0001436,53.2177,112.7442,86.0334,274.0822,4.3008e-05,3.97e-06,0.0,0 STARLINK-3911,1 52565U 22051AJ  24159.56695680  .00000397  00000-0  43008-4 0  9997,2 52565  53.2177 112.7442 0001436  86.0334 274.0822 15.08834624114944,6917.897,95.438,540.755,538.768,0.0
52565.0,STARLINK-3911,PAYLOAD,2024-06-08 13:27:11,15.08839774,0.0001308,53.2186,108.2849,78.0056,282.1083,7.3672e-05,8.85e-06,0.0,0 STARLINK-3911,1 52565U 22051AJ  24160.56055434  .00000885  00000-0  73672-4 0  9998,2 52565  53.2186 108.2849 0001308  78.0056 282.1083 15.08839774115092,6917.881,95.438,540.651,538.841,0.0
52565.0,STARLINK-3911,PAYLOAD,2024-06-09 03:45:40,15.08831815,0.0001507,53.2181,105.6082,69.4196,290.6958,5.9486e-05,6.59e-06,0.0,0 STARLINK-3911,1 52565U 22051AJ  24161.15672288  .00000659  00000-0  59486-4 0  9992,2 52565  53.2181 105.6082 0001507  69.4196 290.6958 15.08831815115258,6917.905,95.438,540.813,538.728,0.0
52565.0,STARLINK-3911,PAYLOAD,2024-06-09 19:39:32,15.0883087,0.0001542,53.2178,102.6358,61.448,298.6667,4.6843e-05,4.57e-06,0.0,0 STARLINK-3911,1 52565U 22051AJ  24161.81912877  .00000457  00000-0  46843-4 0  9995,2 52565  53.2178 102.6358 0001542  61.4480 298.6667 15.08830870115282,6917.908,95.438,540.84,538.707,0.0
52565.0,STARLINK-3911,PAYLOAD,2024-06-10 13:08:46,15.08844379,0.0001399,53.2183,99.3659,81.0655,279.0495,1.1074e-05,-1.12e-06,0.0,0 STARLINK-3911,1 52565U 22051AJ  24162.54776157 -.00000112  00000-0  11074-4 0  9992,2 52565  53.2183  99.3659 0001399  81.0655 279.0495 15.08844379115467,6917.867,95.437,540.7,538.764,0.0
52565.0,STARLINK-3911,PAYLOAD,2024-06-11 12:59:33,15.08849828,0.0001223,53.2177,94.9054,85.2591,274.8541,9.0339e-05,1.151e-05,0.0,0 STARLINK-3911,1 52565U 22051AJ  24163.54135492  .00001151  00000-0  90339-4 0  9998,2 52565  53.2177  94.9054 0001223  85.2591 274.8541 15.08849828115549,6917.85,95.437,540.561,538.869,0.0
52565.0,STARLINK-3911,PAYLOAD,2024-06-12 04:53:23,15.08855408,0.000151,53.2184,91.9297,87.2145,272.902,0.00012669,1.73e-05,0.0,0 STARLINK-3911,1 52565U 22051AJ  24164.20374917  .00001730  00000-0  12669-3 0  9991,2 52565  53.2184  91.9297 0001510  87.2145 272.9020 15.08855408115710,6917.833,95.437,540.743,538.654,0.0
52565.0,STARLINK-3911,PAYLOAD,2024-06-12 12:50:21,15.08829775,0.0001944,53.2184,90.4417,93.5774,266.5441,-4.2242e-05,-9.6e-06,0.0,0 STARLINK-3911,1 52565U 22051AJ  24164.53497125 -.00000960  00000-0 -42242-4 0  9991,2 52565  53.2184  90.4417 0001944  93.5774 266.5441 15.08829775115766,6917.912,95.438,541.121,538.432,0.0
52565.0,STARLINK-3911,PAYLOAD,2024-06-12 22:22:40,15.08831846,0.0001377,53.2178,88.6572,101.1402,258.9745,-3.1673e-05,-7.92e-06,0.0,0 STARLINK-3911,1 52565U 22051AJ  24164.93240878 -.00000792  00000-0 -31673-4 0  9995,2 52565  53.2178  88.6572 0001377 101.1402 258.9745 15.08831846115757,6917.905,95.438,540.723,538.818,0.0
52565.0,STARLINK-3911,PAYLOAD,2024-06-13 01:33:26,15.08835874,0.0001356,53.2185,88.0657,89.1397,270.975,-9.1886e-05,-1.75e-05,0.0,0 STARLINK-3911,1 52565U 22051AJ  24165.06488963 -.00001750  00000-0 -91886-4 0  9996,2 52565  53.2185  88.0657 0001356  89.1397 270.9750 15.08835874115843,6917.893,95.438,540.696,538.82,0.0
52565.0,STARLINK-3911,PAYLOAD,2024-06-13 22:13:26,15.0884389,0.0001375,53.2187,84.1979,108.6274,251.4868,2.2052e-05,6.3e-07,0.0,0 STARLINK-3911,1 52565U 22051AJ  24165.92600012  .00000063  00000-0  22052-4 0  9995,2 52565  53.2187  84.1979 0001375 108.6274 251.4868 15.08843890115909,6917.868,95.437,540.685,538.782,0.0
52565.0,STARLINK-3911,PAYLOAD,2024-06-14 10:56:31,15.08845664,0.0001197,53.2188,81.823,89.5086,270.6044,-1.2641e-05,-4.89e-06,0.0,0 STARLINK-3911,1 52565U 22051AJ  24166.45592055 -.00000489  00000-0 -12641-4 0  9998,2 52565  53.2188  81.8230 0001197  89.5086 270.6044 15.08845664115982,6917.863,95.437,540.556,538.9,0.0
52565.0,STARLINK-3911,PAYLOAD,2024-06-14 22:04:14,15.0882961,0.0001071,53.2185,79.7425,80.2923,279.819,0.00016397,2.322e-05,0.0,0 STARLINK-3911,1 52565U 22051AJ  24166.91960850  .00002322  00000-0  16397-3 0  9998,2 52565  53.2185  79.7425 0001071  80.2923 279.8190 15.08829610116055,6917.912,95.438,540.518,539.036,0.0
52565.0,STARLINK-3911,PAYLOAD,2024-06-15 10:47:18,15.0884202,0.0001178,53.2193,77.364,91.7662,268.3465,0.00010748,1.423e-05,0.0,0 STARLINK-3911,1 52565U 22051AJ  24167.44952391  .00001423  00000-0  10748-3 0  9993,2 52565  53.2193  77.3640 0001178  91.7662 268.3465 15.08842020116139,6917.874,95.437,540.554,538.924,0.0
52565.0,STARLINK-3911,PAYLOAD,2024-06-15 21:55:01,15.08840413,0.0001411,53.2204,75.286,110.9662,249.1482,-5.8684e-06,-3.81e-06,0.0,0 STARLINK-3911,1 52565U 22051AJ  24167.91320858 -.00000381  00000-0 -58684-5 0  9999,2 52565  53.2204  75.2860 0001411 110.9662 249.1482 15.08840413116205,6917.879,95.438,540.72,538.768,0.0
52565.0,STARLINK-3911,PAYLOAD,2024-06-16 01:05:47,15.08840074,0.0001388,53.2199,74.6905,108.3624,251.752,-1.4537e-05,-5.19e-06,0.0,0 STARLINK-3911,1 52565U 22051AJ  24168.04568879 -.00000519  00000-0 -14537-4 0  9992,2 52565  53.2199  74.6905 0001388 108.3624 251.7520 15.08840074116220,6917.88,95.438,540.705,538.785,0.0
52565.0,STARLINK-3911,PAYLOAD,2024-06-16 21:45:48,15.0883472,0.0001351,53.22,70.8227,108.0454,252.0685,4.0333e-05,3.54e-06,0.0,0 STARLINK-3911,1 52565U 22051AJ  24168.90681256  .00000354  00000-0  40333-4 0  9990,2 52565  53.2200  70.8227 0001351 108.0454 252.0685 15.08834720116357,6917.897,95.438,540.696,538.827,0.0
52565.0,STARLINK-3911,PAYLOAD,2024-06-17 21:36:36,15.08819869,0.0001119,53.2179,66.3604,87.484,272.628,0.00034928,5.272e-05,0.0,0 STARLINK-3911,1 52565U 22051AJ  24169.90041823  .00005272  00000-0  34928-3 0  9997,2 52565  53.2179  66.3604 0001119  87.4840 272.6280 15.08819869116572,6917.942,95.439,540.581,539.033,0.0
52565.0,STARLINK-3911,PAYLOAD,2024-06-17 23:11:59,15.08818478,9.5e-05,53.2172,66.0626,82.7994,277.3106,0.00038214,5.796e-05,0.0,0 STARLINK-3911,1 52565U 22051AJ  24169.96665865  .00005796  00000-0  38214-3 0  9994,2 52565  53.2172  66.0626 0000950  82.7994 277.3106 15.08818478116514,6917.946,95.439,540.468,539.154,0.0
52565.0,STARLINK-3911,PAYLOAD,2024-06-18 00:47:21,15.08842964,0.0001242,53.2184,65.7658,86.2376,273.8758,9.9564e-05,1.297e-05,0.0,0 STARLINK-3911,1 52565U 22051AJ  24170.03288781  .00001297  00000-0  99564-4 0  9990,2 52565  53.2184  65.7658 0001242  86.2376 273.8758 15.08842964116595,6917.871,95.437,540.596,538.877,0.0
52565.0,STARLINK-3911,PAYLOAD,2024-06-18 10:19:40,15.08846318,0.0001265,53.2186,63.9818,79.8447,280.2688,6.4368e-05,7.37e-06,0.0,0 STARLINK-3911,1 52565U 22051AJ  24170.43032606  .00000737  00000-0  64368-4 0  9999,2 52565  53.2186  63.9818 0001265  79.8447 280.2688 15.08846318116587,6917.861,95.437,540.601,538.851,0.0
52565.0,STARLINK-3911,PAYLOAD,2024-06-18 23:02:45,15.08843228,0.0001283,53.2183,61.6002,89.1913,270.9226,7.7932e-05,9.53e-06,0.0,0 STARLINK-3911,1 52565U 22051AJ  24170.96024789  .00000953  00000-0  77932-4 0  9991,2 52565  53.2183  61.6002 0001283  89.1913 270.9226 15.08843228116666,6917.871,95.437,540.623,538.848,0.0
52565.0,STARLINK-3911,PAYLOAD,2024-06-19 10:10:27,15.08845011,0.0001297,53.2182,59.5204,85.1646,274.9495,7.2825e-05,8.71e-06,0.0,0 STARLINK-3911,1 52565U 22051AJ  24171.42392600  .00000871  00000-0  72825-4 0  9998,2 52565  53.2182  59.5204 0001297  85.1646 274.9495 15.08845011116809,6917.865,95.437,540.627,538.833,0.0
52565.0,STARLINK-3911,PAYLOAD,2024-06-19 22:53:32,15.08844365,0.0001377,53.2183,57.1425,88.1116,272.0034,1.7844e-05,-4e-08,0.0,0 STARLINK-3911,1 52565U 22051AJ  24171.95384761 -.00000004  00000-0  17844-4 0  9994,2 52565  53.2183  57.1425 0001377  88.1116 272.0034 15.08844365116813,6917.867,95.437,540.685,538.779,0.0
52565.0,STARLINK-3911,PAYLOAD,2024-06-20 22:44:19,15.08837566,0.00015,53.2185,52.6822,96.0714,264.0449,1.0544e-05,-1.2e-06,0.0,0 STARLINK-3911,1 52565U 22051AJ  24172.94745177 -.00000120  00000-0  10544-4 0  9995,2 52565  53.2185  52.6822 0001500  96.0714 264.0449 15.08837566117037,6917.888,95.438,540.791,538.715,0.0
52565.0,STARLINK-3911,PAYLOAD,2024-06-21 01:55:05,15.08840178,0.0001524,53.2184,52.086,100.4694,259.647,3.5233e-05,2.73e-06,0.0,0 STARLINK-3911,1 52565U 22051AJ  24173.07992903  .00000273  00000-0  35233-4 0  9991,2 52565  53.2184  52.0860 0001524 100.4694 259.6470 15.08840178116985,6917.88,95.438,540.799,538.691,0.0
52565.0,STARLINK-3911,PAYLOAD,2024-06-21 20:59:43,15.08837115,0.0001506,53.2181,48.5169,106.2592,253.8566,1.678e-05,-2.1e-07,0.0,0 STARLINK-3911,1 52565U 22051AJ  24173.87481257 -.00000021  00000-0  16780-4 0  9992,2 52565  53.2181  48.5169 0001506 106.2592 253.8566 15.08837115117109,6917.889,95.438,540.796,538.712,0.0
52565.0,STARLINK-3911,PAYLOAD,2024-06-22 20:50:31,15.0883485,0.0001349,53.2177,44.0555,87.0417,273.0729,2.5728e-05,1.22e-06,0.0,0 STARLINK-3911,1 52565U 22051AJ  24174.86841817  .00000122  00000-0  25728-4 0  9997,2 52565  53.2177  44.0555 0001349  87.0417 273.0729 15.08834850117323,6917.896,95.438,540.694,538.828,0.0
52565.0,STARLINK-3911,PAYLOAD,2024-06-23 20:41:18,15.08839837,0.0001583,53.2185,39.6017,106.1464,253.9702,0.00010594,1.398e-05,0.0,0 STARLINK-3911,1 52565U 22051AJ  24175.86201443  .00001398  00000-0  10594-3 0  9993,2 52565  53.2185  39.6017 0001583 106.1464 253.9702 15.08839837117474,6917.881,95.438,540.841,538.651,0.0
52565.0,STARLINK-3911,PAYLOAD,2024-06-23 22:16:41,15.08842161,0.0001447,53.2177,39.3018,67.2762,292.8383,0.0001251,1.704e-05,0.0,0 STARLINK-3911,1 52565U 22051AJ  24175.92825397  .00001704  00000-0  12510-3 0  9991,2 52565  53.2177  39.3018 0001447  67.2762 292.8383 15.08842161117415,6917.874,95.437,540.74,538.738,0.0
